[{"OBJECT_NAME":"STARLINK-34493","OBJECT_ID":"2025-133A","EPOCH":"2026-03-09T13:10:09.927264","MEAN_MOTION":15.3019727,"ECCENTRICITY":0.000123,"INCLINATION":53.1574,"RA_OF_ASC_NODE":117.6824,"ARG_OF_PERICENTER":79.1032,"MEAN_ANOMALY":281.0107,"EPHEMERIS_TYPE":0,"CLASSIFICATION_TYPE":"U","NORAD_CAT_ID":64472,"ELEMENT_SET_NO":999,"REV_AT_EPOCH":4116,"BSTAR":0.0012723,"MEAN_MOTION_DOT":0.0003751,"MEAN_MOTION_DDOT":0},{"OBJECT_NAME":"CERISE","OBJECT_ID":"1995-033B","EPOCH":"2026-03-09T23:11:27.589056","MEAN_MOTION":15.32047731,"ECCENTRICITY":0.00057118,"INCLINATION":98.325,"RA_OF_ASC_NODE":273.5192,"ARG_OF_PERICENTER":211.8754,"MEAN_ANOMALY":148.214,"EPHEMERIS_TYPE":0,"CLASSIFICATION_TYPE":"U","NORAD_CAT_ID":23606,"ELEMENT_SET_NO":999,"REV_AT_EPOCH":66468,"BSTAR":0.00062940675,"MEAN_MOTION_DOT":0.00019422,"MEAN_MOTION_DDOT":0}]
